start=new Date('2023-03-03T00:00:00.000Z').valueOf();
sats=[{"FILE":"3849487","ELEMENT_SET_NO":"999","MEAN_ELEMENT_THEORY":"SGP4","NORAD_CAT_ID":"55623","CLASSIFICATION_TYPE":"U","ARG_OF_PERICENTER":"267.6848","CENTER_NAME":"EARTH","PERIAPSIS":"353.787","LAUNCH_DATE":"2023-02-12","TLE_LINE2":"2 55623  42.9990 244.2982 0001626 267.6848  92.3833 15.71405212  2933","OBJECT_NAME":"STARLINK-5698","RCS_SIZE":"LARGE","INCLINATION":"42.9990","TIME_SYSTEM":"UTC","REV_AT_EPOCH":"293","ECCENTRICITY":"0.00016260","MEAN_MOTION_DDOT":"0.0000000000000","REF_FRAME":"TEME","MEAN_MOTION_DOT":"0.00056656","EPHEMERIS_TYPE":"0","OBJECT_TYPE":"PAYLOAD","TLE_LINE1":"1 55623U 23020BG  23061.77304245  .00056656  00000-0  43165-3 0  9992","SITE":"AFETR","BSTAR":"0.00043165000000","PERIOD":"91.638","APOAPSIS":"355.977","SEMIMAJOR_AXIS":"6733.017","COUNTRY_CODE":"US","RA_OF_ASC_NODE":"244.2982","EPOCH":"2023-03-02T18:33:10.867680","MEAN_ANOMALY":"92.3833","OBJECT_ID":"2023-020BG","DECAY_DATE":null,"GP_ID":"227365225","MEAN_MOTION":"15.71405212"},{"MEAN_MOTION":"15.77122153","DECAY_DATE":null,"GP_ID":"227365196","OBJECT_ID":"2023-021A","MEAN_ANOMALY":"291.2183","EPOCH":"2023-03-02T20:00:01.000224","RA_OF_ASC_NODE":"113.2806","SEMIMAJOR_AXIS":"6716.736","COUNTRY_CODE":"US","APOAPSIS":"340.915","PERIOD":"91.306","BSTAR":"-0.00671310000000","TLE_LINE1":"1 55628U 23021A   23061.83334491 -.00980598  00000-0 -67131-2 0  9992","SITE":"AFWTR","OBJECT_TYPE":"PAYLOAD","EPHEMERIS_TYPE":"0","MEAN_MOTION_DOT":"-0.00980598","REF_FRAME":"TEME","MEAN_MOTION_DDOT":"0.0000000000000","ECCENTRICITY":"0.00034450","REV_AT_EPOCH":"130","RCS_SIZE":null,"TIME_SYSTEM":"UTC","INCLINATION":"69.9998","OBJECT_NAME":"STARLINK-5484","LAUNCH_DATE":"2023-02-17","TLE_LINE2":"2 55628  69.9998 113.2806 0003445 273.7581 291.2183 15.77122153  1302","PERIAPSIS":"336.287","ARG_OF_PERICENTER":"273.7581","CENTER_NAME":"EARTH","CLASSIFICATION_TYPE":"U","NORAD_CAT_ID":"55628","MEAN_ELEMENT_THEORY":"SGP4","ELEMENT_SET_NO":"999","FILE":"3849487"},{"BSTAR":"-0.00669570000000","PERIOD":"91.306","SITE":"AFWTR","TLE_LINE1":"1 55629U 23021B   23061.83334491 -.00977808  00000-0 -66957-2 0  9998","OBJECT_TYPE":"PAYLOAD","EPHEMERIS_TYPE":"0","MEAN_MOTION_DOT":"-0.00977808","REF_FRAME":"TEME","MEAN_MOTION":"15.77109092","DECAY_DATE":null,"GP_ID":"227365140","OBJECT_ID":"2023-021B","MEAN_ANOMALY":"292.1514","EPOCH":"2023-03-02T20:00:01.000224","RA_OF_ASC_NODE":"113.2811","SEMIMAJOR_AXIS":"6716.773","COUNTRY_CODE":"US","APOAPSIS":"340.943","NORAD_CAT_ID":"55629","MEAN_ELEMENT_THEORY":"SGP4","ELEMENT_SET_NO":"999","FILE":"3849487","MEAN_MOTION_DDOT":"0.0000000000000","ECCENTRICITY":"0.00034310","REV_AT_EPOCH":"130","OBJECT_NAME":"STARLINK-5497","RCS_SIZE":"LARGE","INCLINATION":"69.9999","TIME_SYSTEM":"UTC","TLE_LINE2":"2 55629  69.9999 113.2811 0003431 272.3614 292.1514 15.77109092  1302","LAUNCH_DATE":"2023-02-17","PERIAPSIS":"336.334","ARG_OF_PERICENTER":"272.3614","CENTER_NAME":"EARTH","CLASSIFICATION_TYPE":"U"},{"MEAN_MOTION_DOT":"-0.00980589","REF_FRAME":"TEME","EPHEMERIS_TYPE":"0","OBJECT_TYPE":"PAYLOAD","TLE_LINE1":"1 55630U 23021C   23061.83334491 -.00980589  00000-0 -67105-2 0  9996","SITE":"AFWTR","PERIOD":"91.305","BSTAR":"-0.00671050000000","RA_OF_ASC_NODE":"113.2800","EPOCH":"2023-03-02T20:00:01.000224","APOAPSIS":"340.885","COUNTRY_CODE":"US","SEMIMAJOR_AXIS":"6716.712","GP_ID":"227365244","DECAY_DATE":null,"MEAN_MOTION":"15.77130695","MEAN_ANOMALY":"294.2330","OBJECT_ID":"2023-021C","FILE":"3849487","ELEMENT_SET_NO":"999","NORAD_CAT_ID":"55630","MEAN_ELEMENT_THEORY":"SGP4","CLASSIFICATION_TYPE":"U","ARG_OF_PERICENTER":"271.2345","CENTER_NAME":"EARTH","TLE_LINE2":"2 55630  69.9999 113.2800 0003437 271.2345 294.2330 15.77130695  1309","LAUNCH_DATE":"2023-02-17","PERIAPSIS":"336.268","ECCENTRICITY":"0.00034370","MEAN_MOTION_DDOT":"0.0000000000000","RCS_SIZE":"MEDIUM","OBJECT_NAME":"STARLINK-5303","INCLINATION":"69.9999","TIME_SYSTEM":"UTC","REV_AT_EPOCH":"130"},{"MEAN_ANOMALY":"296.8388","OBJECT_ID":"2023-021D","DECAY_DATE":null,"GP_ID":"227365226","MEAN_MOTION":"15.77193563","APOAPSIS":"340.704","SEMIMAJOR_AXIS":"6716.533","COUNTRY_CODE":"US","RA_OF_ASC_NODE":"113.2768","EPOCH":"2023-03-02T20:00:01.000224","SITE":"AFWTR","TLE_LINE1":"1 55631U 23021D   23061.83334491 -.00978062  00000-0 -66724-2 0  9996","PERIOD":"91.301","BSTAR":"-0.00667240000000","OBJECT_TYPE":"PAYLOAD","EPHEMERIS_TYPE":"0","REF_FRAME":"TEME","MEAN_MOTION_DOT":"-0.00978062","RCS_SIZE":"MEDIUM","INCLINATION":"69.9998","OBJECT_NAME":"STARLINK-5558","TIME_SYSTEM":"UTC","REV_AT_EPOCH":"130","ECCENTRICITY":"0.00034330","MEAN_MOTION_DDOT":"0.0000000000000","PERIAPSIS":"336.093","TLE_LINE2":"2 55631  69.9998 113.2768 0003433 271.4048 296.8388 15.77193563  1304","LAUNCH_DATE":"2023-02-17","CLASSIFICATION_TYPE":"U","ARG_OF_PERICENTER":"271.4048","CENTER_NAME":"EARTH","MEAN_ELEMENT_THEORY":"SGP4","NORAD_CAT_ID":"55631","ELEMENT_SET_NO":"999","FILE":"3849487"},{"EPHEMERIS_TYPE":"0","REF_FRAME":"TEME","MEAN_MOTION_DOT":"-0.00980570","TLE_LINE1":"1 55632U 23021E   23061.83334491 -.00980570  00000-0 -67038-2 0  9993","SITE":"AFWTR","PERIOD":"91.304","BSTAR":"-0.00670380000000","OBJECT_TYPE":"PAYLOAD","MEAN_ANOMALY":"294.3421","OBJECT_ID":"2023-021E","GP_ID":"227365262","DECAY_DATE":null,"MEAN_MOTION":"15.77152513","APOAPSIS":"340.826","COUNTRY_CODE":"US","SEMIMAJOR_AXIS":"6716.650","RA_OF_ASC_NODE":"113.2788","EPOCH":"2023-03-02T20:00:01.000224","FILE":"3849487","MEAN_ELEMENT_THEORY":"SGP4","NORAD_CAT_ID":"55632","ELEMENT_SET_NO":"999","CLASSIFICATION_TYPE":"U","ARG_OF_PERICENTER":"272.0493","CENTER_NAME":"EARTH","RCS_SIZE":"MEDIUM","INCLINATION":"69.9999","OBJECT_NAME":"STARLINK-5546","TIME_SYSTEM":"UTC","REV_AT_EPOCH":"130","ECCENTRICITY":"0.00034410","MEAN_MOTION_DDOT":"0.0000000000000","PERIAPSIS":"336.204","LAUNCH_DATE":"2023-02-17","TLE_LINE2":"2 55632  69.9999 113.2788 0003441 272.0493 294.3421 15.77152513  1309"},{"OBJECT_TYPE":"PAYLOAD","SITE":"AFWTR","TLE_LINE1":"1 55633U 23021F   23061.83334491 -.00977333  00000-0 -66764-2 0  9992","BSTAR":"-0.00667640000000","PERIOD":"91.303","MEAN_MOTION_DOT":"-0.00977333","REF_FRAME":"TEME","EPHEMERIS_TYPE":"0","RA_OF_ASC_NODE":"113.2784","EPOCH":"2023-03-02T20:00:01.000224","APOAPSIS":"340.828","COUNTRY_CODE":"US","SEMIMAJOR_AXIS":"6716.626","DECAY_DATE":null,"GP_ID":"227365133","MEAN_MOTION":"15.77160886","MEAN_ANOMALY":"304.4159","OBJECT_ID":"2023-021F","ELEMENT_SET_NO":"999","NORAD_CAT_ID":"55633","MEAN_ELEMENT_THEORY":"SGP4","FILE":"3849487","LAUNCH_DATE":"2023-02-17","TLE_LINE2":"2 55633  70.0000 113.2784 0003479 262.4362 304.4159 15.77160886  1304","PERIAPSIS":"336.154","ECCENTRICITY":"0.00034790","MEAN_MOTION_DDOT":"0.0000000000000","RCS_SIZE":null,"INCLINATION":"70.0000","OBJECT_NAME":"STARLINK-5498","TIME_SYSTEM":"UTC","REV_AT_EPOCH":"130","CLASSIFICATION_TYPE":"U","CENTER_NAME":"EARTH","ARG_OF_PERICENTER":"262.4362"},{"FILE":"3849487","NORAD_CAT_ID":"55634","MEAN_ELEMENT_THEORY":"SGP4","ELEMENT_SET_NO":"999","ARG_OF_PERICENTER":"272.5976","CENTER_NAME":"EARTH","CLASSIFICATION_TYPE":"U","MEAN_MOTION_DDOT":"0.0000000000000","ECCENTRICITY":"0.00034330","REV_AT_EPOCH":"130","RCS_SIZE":"LARGE","TIME_SYSTEM":"UTC","INCLINATION":"70.0000","OBJECT_NAME":"STARLINK-5500","LAUNCH_DATE":"2023-02-17","TLE_LINE2":"2 55634  70.0000 113.2796 0003433 272.5976 293.3285 15.77139690  1306","PERIAPSIS":"336.245","EPHEMERIS_TYPE":"0","MEAN_MOTION_DOT":"-0.00977855","REF_FRAME":"TEME","BSTAR":"-0.00668690000000","PERIOD":"91.305","SITE":"AFWTR","TLE_LINE1":"1 55634U 23021G   23061.83334491 -.00977855  00000-0 -66869-2 0  9998","OBJECT_TYPE":"PAYLOAD","MEAN_MOTION":"15.77139690","DECAY_DATE":null,"GP_ID":"227365178","OBJECT_ID":"2023-021G","MEAN_ANOMALY":"293.3285","EPOCH":"2023-03-02T20:00:01.000224","RA_OF_ASC_NODE":"113.2796","COUNTRY_CODE":"US","SEMIMAJOR_AXIS":"6716.686","APOAPSIS":"340.857"},{"EPHEMERIS_TYPE":"0","MEAN_MOTION_DOT":"-0.00977438","REF_FRAME":"TEME","SITE":"AFWTR","TLE_LINE1":"1 55635U 23021H   23061.83334491 -.00977438  00000-0 -66548-2 0  9990","PERIOD":"91.299","BSTAR":"-0.00665480000000","OBJECT_TYPE":"PAYLOAD","GP_ID":"227365159","DECAY_DATE":null,"MEAN_MOTION":"15.77236547","MEAN_ANOMALY":"303.5401","OBJECT_ID":"2023-021H","RA_OF_ASC_NODE":"113.2747","EPOCH":"2023-03-02T20:00:01.000224","APOAPSIS":"340.589","COUNTRY_CODE":"US","SEMIMAJOR_AXIS":"6716.411","FILE":"3849487","NORAD_CAT_ID":"55635","MEAN_ELEMENT_THEORY":"SGP4","ELEMENT_SET_NO":"999","CLASSIFICATION_TYPE":"U","ARG_OF_PERICENTER":"266.5479","CENTER_NAME":"EARTH","ECCENTRICITY":"0.00034430","MEAN_MOTION_DDOT":"0.0000000000000","OBJECT_NAME":"STARLINK-5495","RCS_SIZE":"MEDIUM","INCLINATION":"70.0000","TIME_SYSTEM":"UTC","REV_AT_EPOCH":"130","TLE_LINE2":"2 55635  70.0000 113.2747 0003443 266.5479 303.5401 15.77236547  1308","LAUNCH_DATE":"2023-02-17","PERIAPSIS":"335.964"},{"MEAN_ELEMENT_THEORY":"SGP4","NORAD_CAT_ID":"55636","ELEMENT_SET_NO":"999","FILE":"3849487","TIME_SYSTEM":"UTC","RCS_SIZE":null,"INCLINATION":"69.9998","OBJECT_NAME":"STARLINK-5218","REV_AT_EPOCH":"130","ECCENTRICITY":"0.00034380","MEAN_MOTION_DDOT":"0.0000000000000","PERIAPSIS":"336.120","LAUNCH_DATE":"2023-02-17","TLE_LINE2":"2 55636  69.9998 113.2774 0003438 273.0514 294.7302 15.77182722  1305","CLASSIFICATION_TYPE":"U","ARG_OF_PERICENTER":"273.0514","CENTER_NAME":"EARTH","SITE":"AFWTR","TLE_LINE1":"1 55636U 23021J   23061.83334491 -.00978060  00000-0 -66756-2 0  9994","PERIOD":"91.302","BSTAR":"-0.00667560000000","OBJECT_TYPE":"PAYLOAD","EPHEMERIS_TYPE":"0","REF_FRAME":"TEME","MEAN_MOTION_DOT":"-0.00978060","MEAN_ANOMALY":"294.7302","OBJECT_ID":"2023-021J","GP_ID":"227365197","DECAY_DATE":null,"MEAN_MOTION":"15.77182722","APOAPSIS":"340.738","COUNTRY_CODE":"US","SEMIMAJOR_AXIS":"6716.564","RA_OF_ASC_NODE":"113.2774","EPOCH":"2023-03-02T20:00:01.000224"}];
